STARLINK-32284          
1 61005U 24158R   26068.38632596  .00002010  00000+0  79951-4 0  9993
2 61005  53.1607  67.0254 0001286  90.1421 269.9727 15.30206996 85538
2025-313BC              
1 67298U 25313BC  26068.18968176  .00075331  00000+0  26410-2 0  9997
2 67298  97.3985 144.8110 0008478 328.9209  31.1528 15.29126358  7890
